GSAT-10                 
1 38779U 12051B   26185.59513537 -.00000152  00000+0  00000+0 0  9990
2 38779   0.0460 241.7737 0007981 212.1164 125.9656  1.00270016 50274
INTELSAT 23 (IS-23)     
1 38867U 12057A   26185.35432409 -.00000273  00000+0  00000+0 0  9990
2 38867   0.0158  22.2071 0000499 191.2104 143.4564  1.00266390 50124
BEIDOU-2 G6             
1 38953U 12059A   26185.59530870 -.00000164  00000+0  00000+0 0  9994
2 38953   4.4630  73.3400 0009343 330.0809 177.4987  1.00269996 50084
LUCH-5B                 
1 38977U 12061A   26185.43285360 -.00000129  00000+0  00000+0 0  9998
2 38977  10.5186  49.7082 0003198 136.7405 235.5831  1.00272336 49783
STAR ONE C3             
1 38991U 12062A   26185.49248830  .00000000  00000+0  00000+0 0  9999
2 38991   0.0176  17.3851 0002563 106.4925 260.9204  1.00267008 49936
EUTELSAT 21B            
1 38992U 12062B   26183.84952413  .00000141  00000+0  00000+0 0  9992
2 38992   0.0660 347.4707 0002925 105.5004 155.3656  1.00275197 49983
ECHOSTAR 16             
1 39008U 12065A   26183.78424956  .00000000  00000+0  00000+0 0  9997
2 39008   0.0245  45.5752 0001927  61.1954  34.8859  1.00267684 49808
ZHONGXING-12            
1 39017U 12067A   26185.59600204 -.00000194  00000+0  00000+0 0  9997
2 39017   0.0425  92.4297 0003169   0.7387 131.5109  1.00271732 49680
EUTELSAT 70B            
1 39020U 12069A   26185.52134844 -.00000031  00000+0  00000+0 0  9998
2 39020   0.0622  11.0481 0003485  90.9897  78.6617  1.00271264 49688
YAMAL 402               
1 39022U 12070A   26185.58954205  .00000098  00000+0  00000+0 0  9991
2 39022   1.3066  83.9589 0003900  16.4316  89.3373  1.00271501 49574
SKYNET 5D               
1 39034U 12075A   26185.58910872  .00000112  00000+0  00000+0 0  9998
2 39034   0.0661   1.0889 0003794 110.1779  76.1665  1.00271448 49336
MEXSAT 3                
1 39035U 12075B   26185.12821123 -.00000015  00000+0  00000+0 0  9992
2 39035   0.0162 325.3415 0001020 121.0192 127.1796  1.00276359  7220
TDRS 11                 
1 39070U 13004A   26185.58191470  .00000091  00000+0  00000+0 0  9992
2 39070   3.5463  31.5406 0004869  26.6904 259.4748  1.00275648 46861
AMAZONAS 3              
1 39078U 13006A   26185.56657528 -.00000270  00000+0  00000+0 0  9991
2 39078   0.0408 224.8269 0003256 281.6354 279.0853  1.00270858 45081
AZERSPACE 1             
1 39079U 13006B   26185.58780870  .00000145  00000+0  00000+0 0  9991
2 39079   0.0165  37.6744 0001826  96.8236  45.6945  1.00272205 48985
SBIRS GEO-2 (USA 241)   
1 39120U 13011A   26184.49947834 -.00000277  00000+0  00000+0 0  9995
2 39120   4.5243  52.5130 0001983  41.0607 317.9531  1.00271289 48696
EUTELSAT 117 WEST A     
1 39122U 13012A   26185.55548189  .00000000  00000+0  00000+0 0  9999
2 39122   0.0128 345.6326 0002916 120.1056 259.9869  1.00271630 48608
ANIK G1                 
1 39127U 13014A   26185.55738856  .00000000  00000+0  00000+0 0  9998
2 39127   0.0209  35.1736 0001776  77.9236 262.8273  1.00269687 48422
EUTELSAT 7B             
1 39163U 13022A   26185.36619749  .00000060  00000+0  00000+0 0  9991
2 39163   0.0647 349.3383 0004159  57.8333  14.0349  1.00270858 48118
WGS F5 (USA 243)        
1 39168U 13024A   26183.78606956  .00000000  00000+0  00000+0 0  9992
2 39168   0.0207  27.1404 0000373 126.2370 357.9350  1.00269718 47333
SES-6                   
1 39172U 13026A   26185.49933500 -.00000249  00000+0  00000+0 0  9993
2 39172   0.0184 343.9254 0002668 112.2341 325.6144  1.00271906 47892
IRNSS-1A                
1 39199U 13034A   26184.73411578  .00000069  00000+0  00000+0 0  9992
2 39199  35.7564  63.6330 0017846 181.6829 355.8200  1.00279824 47530
MUOS-2                  
1 39206U 13036A   26185.39885796 -.00000003  00000+0  00000+0 0  9992
2 39206   5.0289  45.5508 0051999 176.5905  15.8167  1.00270566 47364
ALPHASAT                
1 39215U 13038A   26185.58356203  .00000145  00000+0  00000+0 0  9997
2 39215   2.9988   1.2675 0002194 118.1369  38.1475  1.00271059 44195
INSAT-3D                
1 39216U 13038B   26183.85162303 -.00000329  00000+0  00000+0 0  9997
2 39216   1.9642  82.3574 0001056  15.1644 259.4386  1.00268722 47238
WGS F6 (USA 244)        
1 39222U 13041A   26183.76969596  .00000099  00000+0  00000+0 0  9990
2 39222   0.0189  25.9393 0001539 192.6833 204.0963  1.00272986 46211
ES'HAIL 1               
1 39233U 13044A   26185.58373536  .00000156  00000+0  00000+0 0  9994
2 39233   0.0472 352.3371 0002455 110.6222  55.2689  1.00271226 46803
GSAT-7                  
1 39234U 13044B   26185.52204177 -.00000064  00000+0  00000+0 0  9992
2 39234   0.1233  90.7041 0002779 180.8917 272.8250  1.00271697 45437
AMOS-4                  
1 39237U 13045A   26185.52022177  .00000020  00000+0  00000+0 0  9995
2 39237   0.0205  73.6545 0002212   2.6021  98.5483  1.00272222 47131
AEHF-3 (USA 246)        
1 39256U 13050A   26185.61365549  .00000040  00000+0  00000+0 0  9997
2 39256   5.3359  67.0259 0088277 187.6877 124.6164  1.00268435 45829
