OBJECT_NAME,OBJECT_ID,EPOCH,MEAN_MOTION,ECCENTRICITY,INCLINATION,RA_OF_ASC_NODE,ARG_OF_PERICENTER,MEAN_ANOMALY,EPHEMERIS_TYPE,CLASSIFICATION_TYPE,NORAD_CAT_ID,ELEMENT_SET_NO,REV_AT_EPOCH,BSTAR,MEAN_MOTION_DOT,MEAN_MOTION_DDOT
GSAT-10,2012-051B,2026-07-04T14:16:59.695968,1.00270016,.00079819,0.0460,241.7737,212.1164,125.9656,0,U,38779,999,5027,0,-.152E-5,0
INTELSAT 23 (IS-23),2012-057A,2026-07-04T08:30:13.601376,1.00266390,.0000499,0.0158,22.2071,191.2104,143.4564,0,U,38867,999,5012,0,-.273E-5,0
BEIDOU-2 G6,2012-059A,2026-07-04T14:17:14.671680,1.00269996,.00093432,4.4630,73.3400,330.0809,177.4987,0,U,38953,999,5008,0,-.164E-5,0
LUCH-5B,2012-061A,2026-07-04T10:23:18.551040,1.00272336,.00031983,10.5186,49.7082,136.7405,235.5831,0,U,38977,999,4978,0,-.129E-5,0
STAR ONE C3,2012-062A,2026-07-04T11:49:10.989120,1.00267008,.00025634,0.0176,17.3851,106.4925,260.9204,0,U,38991,999,4993,0,0,0
EUTELSAT 21B,2012-062B,2026-07-02T20:23:18.884832,1.00275197,.00029251,0.0660,347.4707,105.5004,155.3656,0,U,38992,999,4998,0,.141E-5,0
ECHOSTAR 16,2012-065A,2026-07-02T18:49:19.161984,1.00267684,.00019277,0.0245,45.5752,61.1954,34.8859,0,U,39008,999,4980,0,0,0
ZHONGXING-12,2012-067A,2026-07-04T14:18:14.576256,1.00271732,.00031696,0.0425,92.4297,0.7387,131.5109,0,U,39017,999,4968,0,-.194E-5,0
EUTELSAT 70B,2012-069A,2026-07-04T12:30:44.505216,1.00271264,.00034856,0.0622,11.0481,90.9897,78.6617,0,U,39020,999,4968,0,-.31E-6,0
YAMAL 402,2012-070A,2026-07-04T14:08:56.433120,1.00271501,.00039009,1.3066,83.9589,16.4316,89.3373,0,U,39022,999,4957,0,.98E-6,0
SKYNET 5D,2012-075A,2026-07-04T14:08:18.993408,1.00271448,.00037949,0.0661,1.0889,110.1779,76.1665,0,U,39034,999,4933,0,.112E-5,0
MEXSAT 3,2012-075B,2026-07-04T03:04:37.450272,1.00276359,.00010207,0.0162,325.3415,121.0192,127.1796,0,U,39035,999,722,0,-.15E-6,0
TDRS 11,2013-004A,2026-07-04T13:57:57.430080,1.00275648,.00048699,3.5463,31.5406,26.6904,259.4748,0,U,39070,999,4686,0,.91E-6,0
AMAZONAS 3,2013-006A,2026-07-04T13:35:52.104192,1.00270858,.00032568,0.0408,224.8269,281.6354,279.0853,0,U,39078,999,4508,0,-.27E-5,0
AZERSPACE 1,2013-006B,2026-07-04T14:06:26.671680,1.00272205,.0001826,0.0165,37.6744,96.8236,45.6945,0,U,39079,999,4898,0,.145E-5,0
SBIRS GEO-2 (USA 241),2013-011A,2026-07-03T11:59:14.928576,1.00271289,.00019833,4.5243,52.5130,41.0607,317.9531,0,U,39120,999,4869,0,-.277E-5,0
EUTELSAT 117 WEST A,2013-012A,2026-07-04T13:19:53.635296,1.00271630,.00029161,0.0128,345.6326,120.1056,259.9869,0,U,39122,999,4860,0,0,0
ANIK G1,2013-014A,2026-07-04T13:22:38.371584,1.00269687,.00017767,0.0209,35.1736,77.9236,262.8273,0,U,39127,999,4842,0,0,0
EUTELSAT 7B,2013-022A,2026-07-04T08:47:19.463136,1.00270858,.00041594,0.0647,349.3383,57.8333,14.0349,0,U,39163,999,4811,0,.6E-6,0
WGS F5 (USA 243),2013-024A,2026-07-02T18:51:56.409984,1.00269718,.00003737,0.0207,27.1404,126.2370,357.9350,0,U,39168,999,4733,0,0,0
SES-6,2013-026A,2026-07-04T11:59:02.544000,1.00271906,.00026682,0.0184,343.9254,112.2341,325.6144,0,U,39172,999,4789,0,-.249E-5,0
IRNSS-1A,2013-034A,2026-07-03T17:37:07.603392,1.00279824,.0017846,35.7564,63.6330,181.6829,355.8200,0,U,39199,999,4753,0,.69E-6,0
MUOS-2,2013-036A,2026-07-04T09:34:21.327744,1.00270566,.00519997,5.0289,45.5508,176.5905,15.8167,0,U,39206,999,4736,0,-.3E-7,0
ALPHASAT,2013-038A,2026-07-04T14:00:19.759392,1.00271059,.0002194,2.9988,1.2675,118.1369,38.1475,0,U,39215,999,4419,0,.145E-5,0
INSAT-3D,2013-038B,2026-07-02T20:26:20.229792,1.00268722,.00010564,1.9642,82.3574,15.1644,259.4386,0,U,39216,999,4723,0,-.329E-5,0
WGS F6 (USA 244),2013-041A,2026-07-02T18:28:21.730944,1.00272986,.00015393,0.0189,25.9393,192.6833,204.0963,0,U,39222,999,4621,0,.99E-6,0
ES'HAIL 1,2013-044A,2026-07-04T14:00:34.735104,1.00271226,.00024557,0.0472,352.3371,110.6222,55.2689,0,U,39233,999,4680,0,.156E-5,0
GSAT-7,2013-044B,2026-07-04T12:31:44.408928,1.00271697,.00027797,0.1233,90.7041,180.8917,272.8250,0,U,39234,999,4543,0,-.64E-6,0
AMOS-4,2013-045A,2026-07-04T12:29:07.160928,1.00272222,.00022124,0.0205,73.6545,2.6021,98.5483,0,U,39237,999,4713,0,.2E-6,0
AEHF-3 (USA 246),2013-050A,2026-07-04T14:43:39.834336,1.00268435,.00882775,5.3359,67.0259,187.6877,124.6164,0,U,39256,999,4582,0,.4E-6,0
